COMMENT,ORIGINATOR,NORAD_CAT_ID,OBJECT_NAME,OBJECT_TYPE,CLASSIFICATION_TYPE,INTLDES,EPOCH,EPOCH_MICROSECONDS,MEAN_MOTION,ECCENTRICITY,INCLINATION,RA_OF_ASC_NODE,ARG_OF_PERICENTER,MEAN_ANOMALY,EPHEMERIS_TYPE,ELEMENT_SET_NO,REV_AT_EPOCH,BSTAR,MEAN_MOTION_DOT,MEAN_MOTION_DDOT,FILE,TLE_LINE0,TLE_LINE1,TLE_LINE2,OBJECT_ID,OBJECT_NUMBER,SEMIMAJOR_AXIS,PERIOD,APOGEE,PERIGEE,DECAYED
"GENERATED VIA SPACETRACK.ORG API","18 SPCS","48886","SPACEBEE-102","PAYLOAD","U","21059H","2021-08-10 19:42:08","384832","15.12016185","0.0010564","97.5185","350.9465","96.5792","263.6642","0","999","695","0.000092785","0.00001531","0","3093716","0 SPACEBEE-102","1 48886U 21059H   21222.82093038  .00001531  00000-0  92785-4 0  9998","2 48886  97.5185 350.9465 0010564  96.5792 263.6642 15.12016185  6956","2021-059H","48886","6908.189","95.237","537.352","522.756","0"
"GENERATED VIA SPACETRACK.ORG API","18 SPCS","48886","SPACEBEE-102","PAYLOAD","U","21059H","2021-08-11 08:24:31","87584","15.12017802","0.0010561","97.5186","351.4676","94.9978","265.2459","0","999","703","0.000090569","0.00001493","0","3094268","0 SPACEBEE-102","1 48886U 21059H   21223.35035981  .00001493  00000-0  90569-4 0  9995","2 48886  97.5186 351.4676 0010561  94.9978 265.2459 15.12017802  7033","2021-059H","48886","6908.184","95.237","537.345","522.753","0"
"GENERATED VIA SPACETRACK.ORG API","18 SPCS","48886","SPACEBEE-102","PAYLOAD","U","21059H","2021-08-11 21:06:53","767872","15.12018742","0.0010554","97.5187","351.9887","93.4547","266.789","0","999","711","0.000081861","0.00001343","0","3094490","0 SPACEBEE-102","1 48886U 21059H   21223.87978898  .00001343  00000-0  81861-4 0  9994","2 48886  97.5187 351.9887 0010554  93.4547 266.7890 15.12018742  7119","2021-059H","48886","6908.181","95.237","537.337","522.755","0"
"GENERATED VIA SPACETRACK.ORG API","18 SPCS","48886","SPACEBEE-102","PAYLOAD","U","21059H","2021-08-11 21:06:53","767872","15.12018742","0.0010554","97.5187","351.9887","93.4547","266.789","0","999","711","0.000081861","0.00001343","0","3094672","0 SPACEBEE-102","1 48886U 21059H   21223.87978898  .00001343  00000-0  81861-4 0  9994","2 48886  97.5187 351.9887 0010554  93.4547 266.7890 15.12018742  7119","2021-059H","48886","6908.181","95.237","537.337","522.755","0"
"GENERATED VIA SPACETRACK.ORG API","18 SPCS","48886","SPACEBEE-102","PAYLOAD","U","21059H","2021-08-12 08:13:58","565280","15.12020057","0.001055","97.5187","352.4447","92.0801","268.1637","0","999","718","0.000079661","0.00001305","0","3094993","0 SPACEBEE-102","1 48886U 21059H   21224.34303895  .00001305  00000-0  79661-4 0  9999","2 48886  97.5187 352.4447 0010550  92.0801 268.1637 15.12020057  7185","2021-059H","48886","6908.177","95.237","537.330","522.754","0"
"GENERATED VIA SPACETRACK.ORG API","18 SPCS","48886","SPACEBEE-102","PAYLOAD","U","21059H","2021-08-12 22:31:38","966016","15.1202188","0.001056","97.5187","353.0309","90.3067","269.9374","0","999","727","0.000078525","0.00001286","0","3095359","0 SPACEBEE-102","1 48886U 21059H   21224.93864544  .00001286  00000-0  78525-4 0  9993","2 48886  97.5187 353.0309 0010560  90.3067 269.9374 15.12021880  7277","2021-059H","48886","6908.172","95.237","537.332","522.742","0"
"GENERATED VIA SPACETRACK.ORG API","18 SPCS","48886","SPACEBEE-102","PAYLOAD","U","21059H","2021-08-13 08:03:25","877952","15.12023241","0.0010557","97.5188","353.4217","89.0942","271.1498","0","999","733","0.000080378","0.00001318","0","3095469","0 SPACEBEE-102","1 48886U 21059H   21225.33571618  .00001318  00000-0  80378-4 0  9990","2 48886  97.5188 353.4217 0010557  89.0942 271.1498 15.12023241  7335","2021-059H","48886","6908.168","95.237","537.326","522.740","0"
"GENERATED VIA SPACETRACK.ORG API","18 SPCS","48886","SPACEBEE-102","PAYLOAD","U","21059H","2021-08-13 20:45:48","395808","15.12024405","0.0010554","97.5189","353.9428","87.5536","272.6902","0","999","741","0.00007672","0.00001255","0","3095871","0 SPACEBEE-102","1 48886U 21059H   21225.86514347  .00001255  00000-0  76720-4 0  9990","2 48886  97.5189 353.9428 0010554  87.5536 272.6902 15.12024405  7412","2021-059H","48886","6908.164","95.237","537.320","522.738","0"
"GENERATED VIA SPACETRACK.ORG API","18 SPCS","48886","SPACEBEE-102","PAYLOAD","U","21059H","2021-08-14 07:52:53","76576","15.12025329","0.0010555","97.5189","354.3988","86.2003","274.0434","0","999","748","0.000073877","0.00001206","0","3096270","0 SPACEBEE-102","1 48886U 21059H   21226.32839209  .00001206  00000-0  73877-4 0  9995","2 48886  97.5189 354.3988 0010555  86.2003 274.0434 15.12025329  7483","2021-059H","48886","6908.161","95.236","537.318","522.735","0"
"GENERATED VIA SPACETRACK.ORG API","18 SPCS","48886","SPACEBEE-102","PAYLOAD","U","21059H","2021-08-14 07:52:53","76576","15.12025329","0.0010555","97.5189","354.3988","86.2003","274.0434","0","999","748","0.000073877","0.00001206","0","3096333","0 SPACEBEE-102","1 48886U 21059H   21226.32839209  .00001206  00000-0  73877-4 0  9995","2 48886  97.5189 354.3988 0010555  86.2003 274.0434 15.12025329  7483","2021-059H","48886","6908.161","95.236","537.318","522.735","0"
"GENERATED VIA SPACETRACK.ORG API","18 SPCS","48886","SPACEBEE-102","PAYLOAD","U","21059H","2021-08-14 18:59:57","717600","15.12026688","0.0010557","97.519","354.8547","84.8571","275.3864","0","999","755","0.000075957","0.00001242","0","3096504","0 SPACEBEE-102","1 48886U 21059H   21226.79164025  .00001242  00000-0  75957-4 0  9994","2 48886  97.5190 354.8547 0010557  84.8571 275.3864 15.12026688  7555","2021-059H","48886","6908.157","95.236","537.315","522.729","0"
"GENERATED VIA SPACETRACK.ORG API","18 SPCS","48886","SPACEBEE-102","PAYLOAD","U","21059H","2021-08-15 07:42:20","127456","15.12028149","0.0010555","97.519","355.3759","83.292","276.9511","0","999","763","0.000078056","0.00001278","0","3096993","0 SPACEBEE-102","1 48886U 21059H   21227.32106629  .00001278  00000-0  78056-4 0  9992","2 48886  97.5190 355.3759 0010555  83.2920 276.9511 15.12028149  7634","2021-059H","48886","6908.153","95.236","537.309","522.726","0"
"GENERATED VIA SPACETRACK.ORG API","18 SPCS","48886","SPACEBEE-102","PAYLOAD","U","21059H","2021-08-15 22:00:00","287136","15.12029734","0.0010558","97.5189","355.962","81.5409","278.7017","0","999","772","0.000079863","0.00001309","0","3097356","0 SPACEBEE-102","1 48886U 21059H   21227.91666999  .00001309  00000-0  79863-4 0  9990","2 48886  97.5189 355.9620 0010558  81.5409 278.7017 15.12029734  7723","2021-059H","48886","6908.148","95.236","537.306","522.719","0"
"GENERATED VIA SPACETRACK.ORG API","18 SPCS","48886","SPACEBEE-102","PAYLOAD","U","21059H","2021-08-16 07:31:46","983936","15.12031614","0.001055","97.519","356.3529","80.373","279.8692","0","999","778","0.000088275","0.00001454","0","3097703","0 SPACEBEE-102","1 48886U 21059H   21228.31373824  .00001454  00000-0  88275-4 0  9995","2 48886  97.5190 356.3529 0010550  80.3730 279.8692 15.12031614  7781","2021-059H","48886","6908.142","95.236","537.295","522.719","0"
"GENERATED VIA SPACETRACK.ORG API","18 SPCS","48886","SPACEBEE-102","PAYLOAD","U","21059H","2021-08-16 20:14:09","264192","15.12032968","0.0010541","97.5191","356.8741","78.844","281.3975","0","999","786","0.000088993","0.00001466","0","3097915","0 SPACEBEE-102","1 48886U 21059H   21228.84316278  .00001466  00000-0  88993-4 0  9993","2 48886  97.5191 356.8741 0010541  78.8440 281.3975 15.12032968  7867","2021-059H","48886","6908.138","95.236","537.285","522.721","0"
"GENERATED VIA SPACETRACK.ORG API","18 SPCS","48886","SPACEBEE-102","PAYLOAD","U","21059H","2021-08-17 07:21:13","697856","15.12034136","0.0010514","97.5191","357.3301","77.4795","282.7611","0","999","793","0.000088409","0.00001456","0","3098321","0 SPACEBEE-102","1 48886U 21059H   21229.30640854  .00001456  00000-0  88409-4 0  9996","2 48886  97.5191 357.3301 0010514  77.4795 282.7611 15.12034136  7932","2021-059H","48886","6908.134","95.236","537.263","522.736","0"
"GENERATED VIA SPACETRACK.ORG API","18 SPCS","48886","SPACEBEE-102","PAYLOAD","U","21059H","2021-08-17 07:21:13","697856","15.12034136","0.0010514","97.5191","357.3301","77.4795","282.7611","0","999","793","0.000088409","0.00001456","0","3098399","0 SPACEBEE-102","1 48886U 21059H   21229.30640854  .00001456  00000-0  88409-4 0  9996","2 48886  97.5191 357.3301 0010514  77.4795 282.7611 15.12034136  7932","2021-059H","48886","6908.134","95.236","537.263","522.736","0"
"GENERATED VIA SPACETRACK.ORG API","18 SPCS","48886","SPACEBEE-102","PAYLOAD","U","21059H","2021-08-17 21:38:53","603520","15.12036261","0.0010493","97.5192","357.9164","75.7246","284.5149","0","999","802","0.000092654","0.00001529","0","3098641","0 SPACEBEE-102","1 48886U 21059H   21229.90200930  .00001529  00000-0  92654-4 0  9997","2 48886  97.5192 357.9164 0010493  75.7246 284.5149 15.12036261  8022","2021-059H","48886","6908.128","95.236","537.242","522.744","0"
"GENERATED VIA SPACETRACK.ORG API","18 SPCS","48886","SPACEBEE-102","PAYLOAD","U","21059H","2021-08-18 07:10:40","171584","15.1203756","0.0010469","97.5192","358.3073","74.5301","285.7085","0","999","808","0.000093953","0.00001552","0","3099054","0 SPACEBEE-102","1 48886U 21059H   21230.29907606  .00001552  00000-0  93953-4 0  9994","2 48886  97.5192 358.3073 0010469  74.5301 285.7085 15.12037560  8089","2021-059H","48886","6908.124","95.236","537.221","522.757","0"
"GENERATED VIA SPACETRACK.ORG API","18 SPCS","48886","SPACEBEE-102","PAYLOAD","U","21059H","2021-08-18 15:07:08","967360","15.12038392","0.0010457","97.5192","358.633","73.5575","286.6804","0","999","813","0.000092458","0.00001526","0","3099231","0 SPACEBEE-102","1 48886U 21059H   21230.62996490  .00001526  00000-0  92458-4 0  9990","2 48886  97.5192 358.6330 0010457  73.5575 286.6804 15.12038392  8136","2021-059H","48886","6908.121","95.236","537.210","522.763","0"
